IRIDIUM 33              
1 24946U 97051C   26095.84900252  .00000371  00000+0  12308-3 0  9996
2 24946  86.3920  20.3072 0007192 187.1259 172.9837 14.35118551494717
IRIDIUM 33 DEB          
1 33773U 97051L   26095.82401381  .00001310  00000+0  38100-3 0  9993
2 33773  86.4063  12.2336 0012536 128.0097 232.2238 14.43544666899936
IRIDIUM 33 DEB          
1 33775U 97051N   26095.74274457  .00002132  00000+0  64559-3 0  9998
2 33775  86.3684   0.8796 0013956 137.5848 246.9815 14.41851269897833
IRIDIUM 33 DEB          
1 33776U 97051P   26095.82643399  .00001159  00000+0  37310-3 0  9996
2 33776  86.4071  32.8302 0014205 174.4645 238.9962 14.38456809897220
IRIDIUM 33 DEB          
1 33777U 97051Q   26095.77412493  .00003028  00000+0  67673-3 0  9992
2 33777  86.3816 345.5809 0005044 221.1404 138.9424 14.56481366901939
IRIDIUM 33 DEB          
1 33850U 97051T   26095.76824412  .00001914  00000+0  57081-3 0  9995
2 33850  86.3442 341.1588 0012078 144.9877 283.5340 14.42555243897965
IRIDIUM 33 DEB          
1 33853U 97051W   26095.81857387  .00002192  00000+0  12392-2 0  9995
2 33853  85.9961 299.7766 0206241 246.4964 127.4317 13.99693101869413
IRIDIUM 33 DEB          
1 33860U 97051AD  26095.41426745  .00007329  00000+0  12324-2 0  9991
2 33860  86.3840 336.8555 0007587 325.7130 210.8146 14.69489287903905
IRIDIUM 33 DEB          
1 33862U 97051AF  26095.48223143  .00013724  00000+0  21090-2 0  9993
2 33862  86.4117 347.2710 0051556  35.3535 138.1859 14.72548642904956
IRIDIUM 33 DEB          
1 33866U 97051AK  26095.83323359  .00003888  00000+0  15203-2 0  9995
2 33866  86.3019  44.7221 0112319 153.3518 236.9849 14.25910418884363
IRIDIUM 33 DEB          
1 33870U 97051AP  26095.78332128  .00003137  00000+0  86320-3 0  9994
2 33870  86.3797   9.3528 0020957 157.5894 257.0907 14.46558112897856
IRIDIUM 33 DEB          
1 33881U 97051BA  26095.65469439  .00021405  00000+0  43520-2 0  9990
2 33881  86.3846  57.0808 0055136 144.1625  28.7460 14.60023058891601
IRIDIUM 33 DEB          
1 33884U 97051BD  26095.64212250  .00016832  00000+0  21554-2 0  9990
2 33884  86.3672 318.2752 0009234 280.5480 133.6958 14.81200594905310
IRIDIUM 33 DEB          
1 33886U 97051BF  26095.86862441  .00000659  00000+0  21915-3 0  9991
2 33886  86.3880  19.1743 0012177 228.1645 198.4279 14.36203747896903
IRIDIUM 33 DEB          
1 33887U 97051BG  26095.64831772  .00000517  00000+0  16659-3 0  9993
2 33887  86.3026 314.3316 0004773 211.6379 208.3331 14.37347455898016
IRIDIUM 33 DEB          
1 33953U 97051BN  26095.79375056  .00005575  00000+0  12408-2 0  9997
2 33953  86.3898   4.2340 0018976  74.2526 349.2588 14.56694111899639
