[{"OBJECT_NAME":"IRIDIUM 33","OBJECT_ID":"1997-051C","EPOCH":"2026-04-05T20:22:33.817728","MEAN_MOTION":14.35118551,"ECCENTRICITY":0.0007192,"INCLINATION":86.392,"RA_OF_ASC_NODE":20.3072,"ARG_OF_PERICENTER":187.1259,"MEAN_ANOMALY":172.9837,"EPHEMERIS_TYPE":0,"CLASSIFICATION_TYPE":"U","NORAD_CAT_ID":24946,"ELEMENT_SET_NO":999,"REV_AT_EPOCH":49471,"BSTAR":0.00012308,"MEAN_MOTION_DOT":3.71e-6,"MEAN_MOTION_DDOT":0},{"OBJECT_NAME":"IRIDIUM 33 DEB","OBJECT_ID":"1997-051L","EPOCH":"2026-04-05T19:46:34.793184","MEAN_MOTION":14.43544666,"ECCENTRICITY":0.0012536,"INCLINATION":86.4063,"RA_OF_ASC_NODE":12.2336,"ARG_OF_PERICENTER":128.0097,"MEAN_ANOMALY":232.2238,"EPHEMERIS_TYPE":0,"CLASSIFICATION_TYPE":"U","NORAD_CAT_ID":33773,"ELEMENT_SET_NO":999,"REV_AT_EPOCH":89993,"BSTAR":0.000381,"MEAN_MOTION_DOT":1.31e-5,"MEAN_MOTION_DDOT":0},{"OBJECT_NAME":"IRIDIUM 33 DEB","OBJECT_ID":"1997-051N","EPOCH":"2026-04-05T17:49:33.130848","MEAN_MOTION":14.41851269,"ECCENTRICITY":0.0013956,"INCLINATION":86.3684,"RA_OF_ASC_NODE":0.8796,"ARG_OF_PERICENTER":137.5848,"MEAN_ANOMALY":246.9815,"EPHEMERIS_TYPE":0,"CLASSIFICATION_TYPE":"U","NORAD_CAT_ID":33775,"ELEMENT_SET_NO":999,"REV_AT_EPOCH":89783,"BSTAR":0.00064559,"MEAN_MOTION_DOT":2.132e-5,"MEAN_MOTION_DDOT":0},{"OBJECT_NAME":"IRIDIUM 33 DEB","OBJECT_ID":"1997-051P","EPOCH":"2026-04-05T19:50:03.896736","MEAN_MOTION":14.38456809,"ECCENTRICITY":0.0014205,"INCLINATION":86.4071,"RA_OF_ASC_NODE":32.8302,"ARG_OF_PERICENTER":174.4645,"MEAN_ANOMALY":238.9962,"EPHEMERIS_TYPE":0,"CLASSIFICATION_TYPE":"U","NORAD_CAT_ID":33776,"ELEMENT_SET_NO":999,"REV_AT_EPOCH":89722,"BSTAR":0.0003731,"MEAN_MOTION_DOT":1.159e-5,"MEAN_MOTION_DDOT":0},{"OBJECT_NAME":"IRIDIUM 33 DEB","OBJECT_ID":"1997-051Q","EPOCH":"2026-04-05T18:34:44.393952","MEAN_MOTION":14.56481366,"ECCENTRICITY":0.0005044,"INCLINATION":86.3816,"RA_OF_ASC_NODE":345.5809,"ARG_OF_PERICENTER":221.1404,"MEAN_ANOMALY":138.9424,"EPHEMERIS_TYPE":0,"CLASSIFICATION_TYPE":"U","NORAD_CAT_ID":33777,"ELEMENT_SET_NO":999,"REV_AT_EPOCH":90193,"BSTAR":0.00067673,"MEAN_MOTION_DOT":3.028e-5,"MEAN_MOTION_DDOT":0},{"OBJECT_NAME":"IRIDIUM 33 DEB","OBJECT_ID":"1997-051T","EPOCH":"2026-04-05T18:26:16.291968","MEAN_MOTION":14.42555243,"ECCENTRICITY":0.0012078,"INCLINATION":86.3442,"RA_OF_ASC_NODE":341.1588,"ARG_OF_PERICENTER":144.9877,"MEAN_ANOMALY":283.534,"EPHEMERIS_TYPE":0,"CLASSIFICATION_TYPE":"U","NORAD_CAT_ID":33850,"ELEMENT_SET_NO":999,"REV_AT_EPOCH":89796,"BSTAR":0.00057081,"MEAN_MOTION_DOT":1.914e-5,"MEAN_MOTION_DDOT":0},{"OBJECT_NAME":"IRIDIUM 33 DEB","OBJECT_ID":"1997-051W","EPOCH":"2026-04-05T19:38:44.782368","MEAN_MOTION":13.99693101,"ECCENTRICITY":0.0206241,"INCLINATION":85.9961,"RA_OF_ASC_NODE":299.7766,"ARG_OF_PERICENTER":246.4964,"MEAN_ANOMALY":127.4317,"EPHEMERIS_TYPE":0,"CLASSIFICATION_TYPE":"U","NORAD_CAT_ID":33853,"ELEMENT_SET_NO":999,"REV_AT_EPOCH":86941,"BSTAR":0.0012392,"MEAN_MOTION_DOT":2.192e-5,"MEAN_MOTION_DDOT":0},{"OBJECT_NAME":"IRIDIUM 33 DEB","OBJECT_ID":"1997-051AD","EPOCH":"2026-04-05T09:56:32.707680","MEAN_MOTION":14.69489287,"ECCENTRICITY":0.00075875,"INCLINATION":86.384,"RA_OF_ASC_NODE":336.8555,"ARG_OF_PERICENTER":325.713,"MEAN_ANOMALY":210.8146,"EPHEMERIS_TYPE":0,"CLASSIFICATION_TYPE":"U","NORAD_CAT_ID":33860,"ELEMENT_SET_NO":999,"REV_AT_EPOCH":90390,"BSTAR":0.0012323628,"MEAN_MOTION_DOT":7.329e-5,"MEAN_MOTION_DDOT":0},{"OBJECT_NAME":"IRIDIUM 33 DEB","OBJECT_ID":"1997-051AF","EPOCH":"2026-04-05T11:34:24.795552","MEAN_MOTION":14.72548642,"ECCENTRICITY":0.00515564,"INCLINATION":86.4117,"RA_OF_ASC_NODE":347.271,"ARG_OF_PERICENTER":35.3535,"MEAN_ANOMALY":138.1859,"EPHEMERIS_TYPE":0,"CLASSIFICATION_TYPE":"U","NORAD_CAT_ID":33862,"ELEMENT_SET_NO":999,"REV_AT_EPOCH":90495,"BSTAR":0.0021089606,"MEAN_MOTION_DOT":0.00013724,"MEAN_MOTION_DDOT":0},{"OBJECT_NAME":"IRIDIUM 33 DEB","OBJECT_ID":"1997-051AK","EPOCH":"2026-04-05T19:59:51.382176","MEAN_MOTION":14.25910418,"ECCENTRICITY":0.0112319,"INCLINATION":86.3019,"RA_OF_ASC_NODE":44.7221,"ARG_OF_PERICENTER":153.3518,"MEAN_ANOMALY":236.9849,"EPHEMERIS_TYPE":0,"CLASSIFICATION_TYPE":"U","NORAD_CAT_ID":33866,"ELEMENT_SET_NO":999,"REV_AT_EPOCH":88436,"BSTAR":0.0015203,"MEAN_MOTION_DOT":3.888e-5,"MEAN_MOTION_DDOT":0},{"OBJECT_NAME":"IRIDIUM 33 DEB","OBJECT_ID":"1997-051AP","EPOCH":"2026-04-05T18:47:58.958592","MEAN_MOTION":14.46558112,"ECCENTRICITY":0.0020957,"INCLINATION":86.3797,"RA_OF_ASC_NODE":9.3528,"ARG_OF_PERICENTER":157.5894,"MEAN_ANOMALY":257.0907,"EPHEMERIS_TYPE":0,"CLASSIFICATION_TYPE":"U","NORAD_CAT_ID":33870,"ELEMENT_SET_NO":999,"REV_AT_EPOCH":89785,"BSTAR":0.0008632,"MEAN_MOTION_DOT":3.137e-5,"MEAN_MOTION_DDOT":0},{"OBJECT_NAME":"IRIDIUM 33 DEB","OBJECT_ID":"1997-051BA","EPOCH":"2026-04-05T15:42:45.595296","MEAN_MOTION":14.60023058,"ECCENTRICITY":0.0055136,"INCLINATION":86.3846,"RA_OF_ASC_NODE":57.0808,"ARG_OF_PERICENTER":144.1625,"MEAN_ANOMALY":28.746,"EPHEMERIS_TYPE":0,"CLASSIFICATION_TYPE":"U","NORAD_CAT_ID":33881,"ELEMENT_SET_NO":999,"REV_AT_EPOCH":89160,"BSTAR":0.004352,"MEAN_MOTION_DOT":0.00021405,"MEAN_MOTION_DDOT":0},{"OBJECT_NAME":"IRIDIUM 33 DEB","OBJECT_ID":"1997-051BD","EPOCH":"2026-04-05T15:24:39.384000","MEAN_MOTION":14.81200594,"ECCENTRICITY":0.0009234,"INCLINATION":86.3672,"RA_OF_ASC_NODE":318.2752,"ARG_OF_PERICENTER":280.548,"MEAN_ANOMALY":133.6958,"EPHEMERIS_TYPE":0,"CLASSIFICATION_TYPE":"U","NORAD_CAT_ID":33884,"ELEMENT_SET_NO":999,"REV_AT_EPOCH":90531,"BSTAR":0.0021554,"MEAN_MOTION_DOT":0.00016832,"MEAN_MOTION_DDOT":0},{"OBJECT_NAME":"IRIDIUM 33 DEB","OBJECT_ID":"1997-051BF","EPOCH":"2026-04-05T20:50:49.149024","MEAN_MOTION":14.36203747,"ECCENTRICITY":0.0012177,"INCLINATION":86.388,"RA_OF_ASC_NODE":19.1743,"ARG_OF_PERICENTER":228.1645,"MEAN_ANOMALY":198.4279,"EPHEMERIS_TYPE":0,"CLASSIFICATION_TYPE":"U","NORAD_CAT_ID":33886,"ELEMENT_SET_NO":999,"REV_AT_EPOCH":89690,"BSTAR":0.00021915,"MEAN_MOTION_DOT":6.59e-6,"MEAN_MOTION_DDOT":0},{"OBJECT_NAME":"IRIDIUM 33 DEB","OBJECT_ID":"1997-051BG","EPOCH":"2026-04-05T15:33:34.651008","MEAN_MOTION":14.37347455,"ECCENTRICITY":0.0004773,"INCLINATION":86.3026,"RA_OF_ASC_NODE":314.3316,"ARG_OF_PERICENTER":211.6379,"MEAN_ANOMALY":208.3331,"EPHEMERIS_TYPE":0,"CLASSIFICATION_TYPE":"U","NORAD_CAT_ID":33887,"ELEMENT_SET_NO":999,"REV_AT_EPOCH":89801,"BSTAR":0.00016659,"MEAN_MOTION_DOT":5.17e-6,"MEAN_MOTION_DDOT":0},{"OBJECT_NAME":"IRIDIUM 33 DEB","OBJECT_ID":"1997-051BN","EPOCH":"2026-04-05T19:03:00.048384","MEAN_MOTION":14.56694111,"ECCENTRICITY":0.0018976,"INCLINATION":86.3898,"RA_OF_ASC_NODE":4.234,"ARG_OF_PERICENTER":74.2526,"MEAN_ANOMALY":349.2588,"EPHEMERIS_TYPE":0,"CLASSIFICATION_TYPE":"U","NORAD_CAT_ID":33953,"ELEMENT_SET_NO":999,"REV_AT_EPOCH":89963,"BSTAR":0.0012408,"MEAN_MOTION_DOT":5.575e-5,"MEAN_MOTION_DDOT":0}]
